name,latitude,longitude,locality,country_code
Abrolhos Islands,-28.92683,113.97929,City Of Greater Geraldton,au
Cables,-32.01783,115.7512,Town of Mosman Park,au
Cottosloe,-32.00839,115.75145,Town of Cottesloe,au
Gas Bay,-33.97835,114.98651,Prevelly,au
Gnaraloo,-23.76673,113.53999,Shire Of Carnarvon,au
Injidup Carpark,-33.69444,114.99162,Yallingup,au
Jake's Point,-27.73414,114.15068,Kalbarri,au
Lefthanders,-33.87952,114.98259,Gracetown,au
Margaret River,-33.97652,114.98321,Prevelly,au
North Point,-33.85883,114.9855,Gracetown,au
Rottnest Island,-32.01595,115.47573,City Of Cockburn,au
Scarborough,-31.89111,115.75471,City Of Stirling,au
Smiths Beach,-33.65871,115.01672,Yallingup,au
South Point,-33.86409,114.976,Gracetown,au
Supertubes,-33.65644,115.01816,Yallingup,au
The Bluff,-24.0312,113.44102,Shire Of Carnarvon,au
Tombstones,-23.88317,113.48381,Shire Of Carnarvon,au
Trigg Point,-31.87621,115.75144,City Of Stirling,au
Warroora Station,-23.64858,113.61334,Shire Of Carnarvon,au
Yallingup,-33.63854,115.02513,Yallingup,au
Cactus,-32.1404,133.1091,Pastoral Unincorporated Area,au
Middleton,-35.5141,138.7195,Alexandrina Council,au
Pennington Bay,-35.8547,137.7378,Kangaroo Island Council,au
Waitpinga,-35.63433,138.49912,City of Victor Harbor,au
13th Beach,-38.2864,144.4677,Connewarre,au
Bells Beach,-38.36868,144.28282,Surf Coast Shire,au
Cat Bay,-38.50563,145.14353,Bass Coast Shire,au
Express Point,-38.50771,145.26305,Smith's Beach,au
Gunnamatta,-38.44856,144.85924,Melbourne,au
Jan Juc,-38.3472,144.3067,Surf Coast Shire,au
Johanna,-38.7602,143.3735,Johanna,au
Point Leo,-38.42461,145.07075,Point Leo,au
Two Mile/Easter Reef,-38.6249,142.9775,Port Campbell,au
Winkipop,-38.3675,144.28591,Surf Coast Shire,au
Woolamai,-38.3458,144.3155,Torquay,au
Burleigh Heads,-28.09002,153.45767,Gold Coast,au
Caloundra,-26.80756,153.13439,Caloundra,au
Kirra,-28.16562,153.53526,Gold Coast,au
Mooloolaba,-26.69599,153.13643,Maroochydore,au
Noosa Heads,-26.38322,153.08373,Noosa Heads,au
North Stradbroke Island,-27.45428,153.5311,Point Lookout,au
Snapper Rocks,-28.16244,153.54979,Gold Coast,au
Superbank,-28.16413,153.54694,Gold Coast,au
The Alley,-28.12528,153.48645,Gold Coast,au
Angourie,-29.48318,153.36592,Angourie,au
Avalon,-33.63465,151.33304,Sydney,au
Black Rock,-35.17635,150.68922,Jervis Bay Territory,au
Bondi,-33.8912,151.27663,Sydney,au
Broken Head,-28.70435,153.61503,Broken Head,au
Cabarita,-28.33327,153.57258,Bogangar,au
Cronulla,-34.05586,151.155,Sydney,au
Curl Curl,-33.76982,151.29549,Sydney,au
Dee Why Point,-33.754903,151.297667,Sydney,au
Duranbah,-28.16704,153.55172,Tweed Heads,au
Golf Course Reef,-35.34583,150.47561,Shoalhaven City Council,au
Green Island,-35.27237,150.51537,Cunjurong Point,au
Lennox Head,-28.79941,153.59557,Lennox Head,au
Manly,-33.79411,151.28781,Manly,au
Maroubra,-33.94874,151.25689,Sydney,au
Merimbula Bar,-36.89486,149.92016,Merimbula,au
Moruya Breakwall,-35.9041,150.15062,Moruya,au
Newport,-33.65133,151.32411,Sydney,au
North Narrabeen,-33.70603,151.30506,Sydney,au
North Wall Ballina,-28.8709,153.5905,Ballina Shire Council,au
Pambula Rivermouth,-36.94563,149.91464,Pambula Beach,au
Pippies,-29.44012,153.3688,Lovers Point,au
Sandon Point,-34.33081,150.92934,Wollongong City Council,au
South Wall Ballina,-28.877,153.5851,South Ballina,au
Tallows,-28.64469,153.63255,Byron Bay,au
The Pass,-28.63783,153.62815,Byron Bay,au
Tuncurry Breakwall,-32.17285,152.50863,Forster,au
Ulladulla Bommie,-35.36737,150.48102,Ulladulla,au
Werri Beach,-34.7403,150.8329,Gerringong,au
Whale Beach,-33.60983,151.33167,Sydney,au
Windang Island,-34.54601,150.87933,Shellharbour City Council,au
Arpoador,-22.98938,-43.191604,Rio de Janeiro,br
Atlântida Pier,-29.78506,-50.02555,Atlântida,br
Barra da Tijuca,-23.01113,-43.36621,Rio de Janeiro,br
Camacho,-28.6152,-48.8607,Jaguaruna,br
Capão da Canoa,-29.6571,-49.9544,Capão Novo Village,br
Cardoso,-28.60588,-48.82511,Farol de Santa Marta,br
Cidreira,-30.1481,-50.19122,Salinas,br
Cacimba do Padre,-3.84779,-32.43434,Fernando de Noronha,br
Ferrugem,-28.07722,-48.62783,Garopaba,br
Grumari,-23.0496,-43.53309,Rio de Janeiro,br
Guarda do Embau,-27.9009,-48.5829,Palhoça,br
Guarita,-29.35871,-49.73672,Torres,br
Ibiraquera,-28.15206,-48.65038,Imbituba,br
Ilha dos Lobos,-29.34678,-49.70453,Torres,br
Ipanema,-22.98667,-43.20747,Rio de Janeiro,br
Itacoatiara,-22.9744,-43.03349,Niterói,br
Itapeva,-29.38686,-49.75964,Torres,br
Itapirubá,-28.345,-48.7124,Laguna,br
Laje da Jagua,-28.7333,-49.01675,Santa Catarina,br
Leblon,-22.98728,-43.22223,Rio de Janeiro,br
Morro dos Conventos,-28.9325,-49.3547,Balneário Morro dos Conventos,br
Pororoca,0.000928,-51.05973,Macapá,br
Praia da Cal,-29.34975,-49.73101,Torres,br
Praia da Macumba,-23.03414,-43.48881,Rio de Janeiro,br
Praia da Saudade,-26.23027,-48.50053,São Francisco do Sul,br
Praia da Vila,-28.241,-48.65796,Imbituba,br
Praia do Silveira,-28.03897,-48.60873,Garopaba,br
Praia dos Molhes,-29.3264,-49.71391,Torres,br
Prainha,-14.30802,-38.98913,Itacaré,br
Prainha,-29.34461,-49.72688,Torres,br
Rincão,-29.08946,-49.51111,Balneário Arroio do Silva,br
Rosa,-28.13139,-48.64262,Imbituba,br
São Conrado,-22.99989,-43.26688,Rio de Janeiro,br
Tramandaí,-30.00477,-50.1312,Tramandaí,br
Chesterman Beach,49.11852,-125.89423,Tofino,ca
Cox Bay,49.10385,-125.8737,Tofino,ca
Habitat 67,45.50039,-73.54293,Montreal,ca
Ingonish Beach,46.64493,-60.39161,Ingonish Beach,ca
Kincardine,44.17673,-81.64089,Kincardine,ca
Lawrencetown Beach,44.64396,-63.34292,East Lawrencetown,ca
Long Beach,49.10394,-125.8735,Tofino,ca
Martinique,44.69118,-63.13876,East Petpeswick,ca
Minutes,44.63149,-63.416053,Cow Bay,ca
Osbourne,44.61765,-63.41738,Cow Bay,ca
Right Point,44.65699,-63.25682,Seaforth,ca
Rosie's Bay,49.12885,-125.90231,Tofino,ca
Wasaga Beach,44.52221,-80.0224,Wasaga Beach,ca
Wickaninnish,49.0217,-125.6769,Area C (Long Beach),ca
Wyldewood Beach,42.87004,-79.14532,Port Colborne,ca
Arica,-18.4803,-70.3325,Arica,cl
El Faro,-37.59498,-73.66552,Lebu,cl
El Muro,-30.07209,-71.37734,Totoralillo,cl
La Rinconada,-36.18083,-72.8159,Rinconada,cl
Pichilemu,-34.3838,-72.009,Pichilemu,cl
Playa Blanca,-30.22174,-71.47713,Playa Blanca,cl
Punta de Lobos,-34.42697,-72.04051,Punta de Lobos,cl
Punta Quidico,-38.2445,-73.4843,Comunidad Francisco Namoncura,cl
Ollie's Point,10.85389,-85.7987,Santa Elena,cr
Playa Grande,10.31234,-85.83921,Cabo Velas,cr
Playa Langosta,10.287569,-85.851642,Langosta,cr
Witches Rock,10.79619,-85.67822,Nacascolo,cr
Playa Tamarindo,10.301843,-85.84086,Cantón Santa Cruz,cr
Playa Avellanes,10.227484,-85.837362,Cantón Santa Cruz,cr
Playa Negra,10.195,-85.83033,Veintisiete de Abril,cr
Playa Junquillal,10.16848,-85.81341,Paraíso,cr
Playa Camaronal,9.8624,-85.44368,Camaronal,cr
Playa Guiones,9.92962,-85.66231,Nosara,cr
Playa Marbella,10.06813,-85.7688,Cuajiniquil,cr
Playa Nosara,9.97617,-85.68631,Nosara,cr
Playa Ostional,9.99512,-85.70216,Ostional,cr
Playa Pelada,9.95902,-85.67686,Nosara,cr
Playa Carmen,9.64973,-85.17731,Cóbano,cr
Playa Santa Teresa,9.6293,-85.15521,Carmen,cr
Bejuco,9.48238,-84.28503,Isla Palo Seco,cr
Boca Barranca,9.96086,-84.73784,Barrio Boca Barranca,cr
Caldera,9.91314,-84.72491,Villa Champagne,cr
Esterillos,9.52942,-84.48897,Esterillos Oeste,cr
Playa Escondida,9.6604,-84.6722,Puerto Escondido,cr
Playa Hermosa,9.57458,-84.60291,Pochotal,cr
Playa Jaco,9.61426,-84.63154,Jacó,cr
Playa Tivives,9.87409,-84.70536,Tivives,cr
Playa Valor,9.86574,-84.6982,Tivives,cr
Roca Loca,9.5909,-84.6246,Pochotal,cr
Boca Damas,9.45784,-84.2164,Parrita,cr
Quepos,9.42544,-84.17019,Barrio El Cerro,cr
Playa El Rey,9.37404,-84.10747,Quepos,cr
Playitas,9.39701,-84.16199,Quepos,cr
Manuel Antonio,9.39465,-84.15469,Espadilla,cr
Playa Dominical,9.2519,-83.86547,Dominical,cr
Pan Dulce,8.38834,-83.27907,Matapalo,cr
Playa Matapalo,8.39287,-83.27953,Pan Dulce,cr
Pavones,8.39339,-83.13846,Pavones,cr
Punta Banco,8.36094,-83.14124,Punta Banco,cr
Punta Burica,8.05418,-82.91353,Burica,cr
Playa Negra,9.74201,-82.84999,Cahuita,cr
Isla Uvita,9.99413,-83.01063,Limón,cr
Playa Cocles,9.6514,-82.73745,Cocles,cr
Salsa Brava,9.66051,-82.75385,Cahuita,cr
Cabo de San Antonio,21.8237,-84.8806,Las Tumbas,cu
Cayo Coco,22.524879,-78.49029,Cayo Coco,cu
Gibara,21.14985,-76.13057,Caletones,cu
La Setenta,23.112918,-82.440055,Havana,cu
Playa Mar Verde,19.96669,-75.85882,Santiago de Cuba,cu
Playas del Este,23.1716,-82.15431,Havana,cu
Sun Beach,23.19325,-81.17154,Cárdenas,cu
Yumuri,20.29468,-74.34483,Guandao,cu
Agger,56.78117,8.22938,Thisted Municipality,dk
Bunkers,57.01079,8.4413,Vangså,dk
Gilleleje Havn,56.12459,12.3155,Gilleleje,dk
Hanstholm,57.12597,8.61875,Hanstholm,dk
Hornbaek,56.093219,12.46759,Hornbæk,dk
Hvide Sande,56.00187,8.11321,Hvide Sande,dk
Klitmøller,57.04353,8.49392,Klitmøller,dk
Loekken,57.373719,9.70945,Løkken,dk
Vorupør,56.95898,8.36623,Thisted Municipality,dk
Bozo,19.75081,-70.41026,Cabarete,do
Coco Pipe,19.77924,-70.4416,Sosúa,do
Destroyers,19.78482,-70.45835,Sosúa,do
El Barco,19.67908,-69.99351,Río San Juan,do
El Chinchorro,18.42233,-70.01011,Santo Domingo Oeste,do
Encuentro,19.78065,-70.4456,Sosúa,do
La Boya,18.43256,-69.63248,Andrés,do
La Puntilla,19.80468,-70.69519,Puerto Plata,do
Los Patos de Barahona,17.96001,-71.18133,Los Patos,do
Playa Bahoruco,18.14304,-71.06438,Juan Esteban,do
Playa Grande,19.67811,-70.01538,Río San Juan,do
Preciosa,19.67874,-70.00296,Río San Juan,do
Sosua,19.75257,-70.526774,Sosúa,do
La Bocana,13.49223,-89.37997,Municipio de La Libertad,sv
Cocal,13.48498,-89.351,El Cocal,sv
Conchalio,13.48609,-89.34939,El Cocal,sv
K59,13.49887,-89.47386,Municipio de Chiltiupan,sv
Mizata,13.51133,-89.59808,Cantón Santa María Mizata,sv
Palmarcito,13.49401,-89.42174,Municipio de Tamanique,sv
Punta Roca,13.48049,-89.32705,Punta Roca Surf,sv
San Blas,13.48593,-89.35834,Playa San Blas,sv
Sunzal,13.49265,-89.39176,Sol y Mar,sv
Zonte,13.49447,-89.43995,Municipio de Chiltiupan,sv
Belharra,43.4173,-1.713,Urrugne,fr
Biarritz,43.48473,-1.55892,Biarritz,fr
Calais,50.96193,1.82815,Sangatte,fr
Canet Plage,42.693,3.03586,Canet-Plage,fr
Cap Gris-Nez,50.870552,1.590659,Framezelle,fr
Capbreton,43.64491,-1.44555,Capbreton,fr
Carnon,43.54157,3.97159,Mauguio,fr
Côte des Basques,43.477821,-1.567094,Biarritz,fr
Galiote,43.27416,6.58402,Grimaud,fr
Gruissan,43.0981,3.11265,Gruissan,fr
Guethary,43.42275,-1.61923,Guéthary,fr
L'Embarcadère,46.34316,-1.42908,La Tranche-sur-Mer,fr
La Gravière,43.66621,-1.44203,Soorts-Hossegor,fr
La Nord,43.66512,-1.44215,Soorts-Hossegor,fr
La Sud,43.66019,-1.44391,Soorts-Hossegor,fr
La Torche,47.83773,-4.34724,Plomeur,fr
Lacanau,45.00266,-1.2024,Lacanau,fr
Lafitenia,43.41412,-1.628,Akotz-Acotz,fr
Les Cavaliers,43.5228,-1.52547,Anglet,fr
Les Culs Nuls,43.68004,-1.43871,Soorts-Hossegor,fr
Les Sables d'Or,43.50566,-1.53781,Anglet,fr
Marinella,43.50398,-1.53885,Anglet,fr
Parlementia,43.43053,-1.60252,Xuxuenia,fr
Porzcarn,47.83299,-4.34754,Plomeur,fr
St. Laurent du Var,43.65586,7.19894,Saint-Laurent-du-Var,fr
Yport,49.73975,0.30857,Yport,fr
Baltrum,53.7316,7.3756,Baltrum,de
Borkum,53.60172,6.6716,Borkum,de
Juist,53.68207,6.994,Juist,de
Langeoog,53.75315,7.4782,Langeoog,de
Norderney,53.7227,7.2762,Norderney,de
Spiekeroog,53.78,7.7433,Spiekeroog,de
St. Peter-Ording,54.31159,8.59427,Sankt Peter-Bad,de
Sylt,54.91238,8.29959,Sylt,de
Wangerooge,53.79381,7.90011,Wangerooge,de
Ammoudia,39.24029,20.48012,Ammoudia,gr
Costa Navarino,36.99085,21.64935,Romanos,gr
Falasarna,35.49265,23.5806,District of Kissamos,gr
Kastro Point,39.28522,20.39115,Chrysogiali,gr
Kolibithra,37.62977,25.14167,Kolympithra,gr
Lagkouvardos,37.09139,21.58249,Gargalianoi Municipal Unit,gr
Loutsa,37.97741,24.00908,Artemida,gr
Ligia,39.14045,20.5787,Lygia,gr
Mitikas,39.00056,20.70152,Mytikas,gr
Apollonas,37.17912,25.55269,Apollonas,gr
Porto Katsiki,38.63047,20.60197,Ponti,gr
Vouliagmeni,37.81318,23.7786,Vouliagmeni Municipal Unit,gr
Alwars,8.37376,78.06723,Manapad,in
Auroville,11.98445,79.84876,Periya Mudaliar Chavadi,in
Big Rock,12.78922,80.25459,Kovalam,in
Diego Garcia Island,-7.3824,72.4927,The Plantation,io
Dwarka,22.2301,68.9705,Dwarka,in
Gokarna,14.54635,74.3133,Gokarna,in
Puri,19.79483,85.82405,Puri,in
Kanyakumari,8.08979,77.55808,Ottayalvilai,in
Kapu Beach,13.22292,74.73793,Kaup,in
Kovalam Beach,8.39868,76.97276,Neyyattinkara,in
Mahe,11.696933,75.534039,Azhiyur,in
Shivas,14.09338,74.48663,Murudeshwara,in
Mahabalipuram Shore Temple,12.61552,80.1984,Mahabalipuram,in
Ten Thousand Peaks,13.70508,74.64239,Trasi,in
Kumari Point,10.5487,92.4276,Little Andaman,in
Krishna River,15.7205,80.9125,Nagayalanka,in
Tiruchendur,8.49482,78.12864,Tiruchchendur,in
Varkala,8.73564,76.70359,Varkala,in
Vizag,17.65768,83.27624,Yarada,in
Lances Left,-2.38675,99.8392,Katiet,id
Lances Right,-2.37705,99.85961,Katiet,id
Macaronis,-2.78752,99.99324,West Sumatra,id
Telescopes,-2.0707,99.5478,Tuapejat,id
Thunders,-3.05515,100.17314,West Sumatra,id
Bombies,-6.6208,105.1221,Banten,id
Inside Lefts,-6.59909,105.17454,Banten,id
Inside Rights,-6.59214,105.14978,Banten,id
One Palm Point,-6.65352,105.17486,Banten,id
Panaitan Rights,-6.61429,105.12985,Banten,id
Baya,-6.9378,106.245,Lebak,id
Cimaja,-6.96235,106.47986,West Java,id
G-Land,-8.73272,114.34,East Java,id
Ombak Tujuh,-7.277761,106.3749,West Java,id
Turtles,-7.34728,106.40128,West Java,id
Airport,-8.74519,115.15983,Tuban,id
Balangan,-8.79383,115.12201,Balangan,id
Bingin,-8.80503,115.1138,Pecatu,id
Canggu,-8.65955,115.13018,Canggu,id
Dreamland,-8.79858,115.1177,Pecatu,id
Green Bowls,-8.84876,115.17064,Ungasan,id
Hyatt Reef,-8.707318,115.262696,Denpasar,id
Impossibles,-8.807577,115.108735,Pecatu,id
Keramas,-8.598321,115.338732,Keramas,id
Kuta Beach,-8.7137,115.16756,Kuta,id
Kuta Reef,-8.7331,115.16358,Tuban,id
Medewi,-8.421,114.8058,Yeh Sumbul,id
Nusa Dua,-8.81625,115.22598,Benoa,id
Nyang Nyang,-8.83909,115.093,Pecatu,id
Padang Padang,-8.81042,115.10083,Pecatu,id
Sanur,-8.67733,115.26483,Denpasar,id
Serangan,-8.74074,115.24143,Denpasar,id
Sri Lanka,-8.78885,115.23057,Benoa,id
Uluwatu,-8.813567,115.096217,Pecatu,id
Belongas Bay,-8.86395,116.03581,Buwun Mas,id
Desert Point,-8.7499,115.8265,West Nusa Tenggara,id
Ekas,-8.90262,116.44169,Pantai Surga,id
Grupuk,-8.92869,116.34866,Gerupuk,id
Kuta,-8.90039,116.29205,Kuta,id
Lakey Peak,-8.804351,118.382443,West Nusa Tenggara,id
Periscopes,-8.80934,118.3804,West Nusa Tenggara,id
Scar Reef,-8.85813,116.76512,West Nusa Tenggara,id
Supersuck,-8.93286,116.7422,West Nusa Tenggara,id
Yo-Yos,-8.97043,116.72799,West Nusa Tenggara,id
T-Land,-10.89077,122.8219,Rote Ndao,id
Brandon Bay,52.29855,-10.03659,Kilshannig,ie
Bundoran,54.482907,-8.27754,Bundoran Urban ED,ie
Crab Island,53.01643,-9.4126,County Clare,ie
Doolin Point,53.01207,-9.39915,Killilagh ED,ie
Dunmoran Strand,54.26328,-8.72901,Toberpatrick West ED,ie
Easkey Left,54.29426,-8.96191,Easky West ED,ie
Easkey Right,54.29451,-8.94609,Easky East ED,ie
Inch Reef,52.1427,-9.9942,Inch ED,ie
Kilcummin,52.24465,-10.1032,Stradbally ED,ie
Lahinch,52.93359,-9.34812,Ennistimon ED,ie
Mullaghmore Head,54.47267,-8.45413,Cliffony North ED,ie
Rossnowlagh,54.55477,-8.21102,Ballintra ED,ie
Streedagh Strand,54.4121,-8.53138,Lissadill North ED,ie
Tullan Strand,54.50434,-8.2627,Ballyshannon Rural ED,ie
Andora,43.95048,8.14831,Andora,it
Arma di Taggia,43.82804,7.84623,Sanremo,it
Artiglieria,41.30336,13.00651,Belsito,it
Banzai,42.03144,11.92912,Santa Marinella,it
Bogliasco,44.377978,9.06993,Bogliasco,it
Entella,44.31015,9.329935,Chiavari,it
Il Bunker,42.03951,11.91539,Santa Marinella,it
Il Castello,42.01676,11.95662,Santa Severa,it
Il Porto,42.02937,11.83576,Santa Marinella,it
La Chiesa,41.45673,12.66544,Nettuno,it
La Roccetta,42.02896,11.83932,Santa Marinella,it
Levanto,44.17014,9.60822,Levanto,it
L'Ideale,42.077069,11.807985,Civitavecchia,it
Lido di Ostia,41.78172,12.22454,Fiumicino,it
Lido Garda,41.46524,12.60938,Anzio,it
Marinaretti,41.4447,12.62961,Anzio,it
Moneglia,44.240733,9.482217,Venino,it
Multedo,44.42363,8.82494,Genoa,it
Recco,44.3605,9.142167,Polanesi,it
Ristorante,42.0378,11.91718,Santa Marinella,it
Santa Agostino,41.22698,13.502436,Gaeta,it
Santa Marinella,42.031251,11.851812,Santa Marinella,it
Seccheto,42.736205,10.176625,Seccheto,it
Serapo,41.21003,13.56501,Gaeta,it
Varazze,44.35845,8.576977,Varazze,it
Ataka,36.42022,136.41688,Komatsu,jp
Choshi,35.71394,140.82427,Choshi,jp
Hokkaido,42.60288,141.8282,Atsuma,jp
Ibaraki,35.987072,140.6614,Kashima,jp
Ikumi,33.52439,134.28301,Toyo,jp
Inamuragasaki,35.30227,139.524701,Kamakura,jp
Katagai,35.54244,140.466,Kujukuri,jp
Katahama,34.713947,138.216092,Makinohara,jp
Kitaizumi,37.66032,141.01764,Minamisoma,jp
Kugenuma,35.31505,139.47024,Fujisawa,jp
Monobegawakakou,33.53545,133.68977,Konan,jp
Niijima,34.36037,139.27556,Niijima,jp
Ohama,34.654,138.91955,Shimoda,jp
Omaezaki,34.60121,138.1917,Omaezaki,jp
Oniguchi,31.23052,130.49363,Minamikyushu,jp
Ozaki,33.36913,134.20536,Muroto,jp
Sendai,38.26365,141.02157,Sendai,jp
Shonan,35.31795,139.40133,Chigasaki,jp
Tadado,34.66096,138.9335,Shimoda,jp
Taito,35.3256,140.40578,Isumi,jp
Adonis,2.18484,73.09853,Veymandoo,mv
Antiques,0.2845,73.44567,Gaafu Dhaalu,mv
Beacons,0.2137,73.14151,Huvadhu Atoll,mv
Bedhuge,2.01688,73.53463,Laamu,mv
Blue Bowls,0.23172,73.28359,Vaadhoo,mv
Castaways,0.19409,73.23131,Huvadhu Atoll,mv
Chickens,4.374111,73.662745,Thulusdhoo,mv
Coke's,4.37185,73.65537,Thulusdhoo,mv
Finnimas,2.1951,73.12872,Thaa Atoll,mv
Five Islands,0.2581,73.3565,Huvadhu Atoll,mv
Gaukendi Bridge,-0.66051,73.11003,Hithadhoo,mv
Honky's,4.31326,73.58419,Kaafu,mv
Isdhoo,2.13291,73.58494,Laamu,mv
Jailbreaks,4.307991,73.576383,Kaafu,mv
Kate's,3.966952,73.506249,Kaafu,mv
Love Charms,0.2657,73.3761,Huvadhu Atoll,mv
Mada's,1.81441,73.39185,Laamu,mv
Malik's,2.2729,72.9291,Thaa,mv
Mikado,2.193,73.11801,Veymandoo,mv
Muli,-0.660482,73.215709,Hithadhoo,mv
Ninjas/Piddlies,4.34353,73.612086,Kaafu,mv
Pasta Point,4.31635,73.59172,North Malé Atoll,mv
Riptides,3.89703,73.47087,Kaafu,mv
Shangri-la,-0.67721,73.19696,Addu,mv
Sultans,4.31347,73.58472,North Malé Atoll,mv
Tiger Stripes,0.28502,73.45277,Gaafu Dhaalu,mv
Two Ways,0.27481,73.35773,Huvadhu Atoll,mv
Yin Yang,1.79999,73.40609,Laamu Atoll,mv
Acapulco,16.82125,-99.90168,Acapulco,mx
Acapulquito,23.024253,-109.716117,San José del Cabo,mx
Anton Lizardo,19.06351,-95.98712,Antón Lizardo,mx
Barra de la Cruz,15.83157,-95.94949,Barra de la Cruz,mx
Barra de Potosi,17.538284,-101.451708,Barra de Potosí,mx
Bucerias,20.74912,-105.33198,Bucerias,mx
Chacahua,15.6849,-96.6251,La Laguna del Palmar,mx
Colotepec,15.80614,-97.01449,Santa María Colotepec,mx
Costa Azul,23.02991,-109.71446,San José del Cabo,mx
Cozumel,20.403165,-86.857581,Cerro Chumul,mx
El Faro,17.922046,-102.16712,Lázaro Cárdenas,mx
Escolleras,17.66346,-101.61967,Ixtapa,mx
La Bocana,15.78887,-96.05027,Santa María Huatulco,mx
La Jolla,15.87532,-95.778,Oaxaca,mx
La Lancha,20.74838,-105.44174,Bahía de Banderas,mx
La Saladita,17.83319,-101.76951,La Unión de Isidoro Montes de Oca,mx
La Ticla,18.453959,-103.558181,La Ticla,mx
Las Gatas,17.62162,-101.553812,Zihuatanejo,mx
Los Frailes,23.38305,-109.42327,Cabo Frailes,mx
Manazillo Bay,17.79472,-101.74503,La Unión de Isidoro Montes de Oca,mx
Neixpa,18.08372,-102.78978,Barra de Nexpa,mx
Nine Palms,23.1749,-109.47748,Cabo Frailes,mx
Nuevo Vallarta,20.68951,-105.29527,Las Jarretaderas,mx
Pascuales,18.8569,-103.96252,Boca de Pascuales,mx
Petacalco,17.980769,-102.102275,Petacalco,mx
Playa Boca Chica,17.1309,-100.6428,Benito Juárez,mx
Playa Bruja,23.30409,-106.49163,Mazatlán,mx
Playa del Borrego,21.5284,-105.28348,San Blas,mx
Playa El Mojon,15.80769,-96.00731,San Miguel del Puerto,mx
Playa Linda,17.695843,-101.647321,San José Ixtapa (Barrio Viejo),mx
Playa Zicatela,15.82993,-97.04696,Brisas de Zicatela,mx
Puerto Escondido,15.84515,-97.0519,Brisas de Zicatela,mx
Puerto Madero,14.72011,-92.42707,Puerto Chiapas,mx
Punta Arena,23.55394,-109.46902,Los Cabos,mx
Punta Burros,20.747992,-105.44479,Bahía de Banderas,mx
Punta Chipehua,16.0287,-95.3728,Playa Chipehua,mx
Punta Conejo,16.13671,-95.24983,Salina Cruz,mx
Revolcadero,16.79102,-99.82531,Puerto Marqués,mx
Rio de Coyula,15.68639,-96.30391,Boca Vieja (Barra Boca Vieja),mx
Salina Cruz,16.13678,-95.24962,Salina Cruz,mx
San Augustin,15.68496,-96.24524,San Agustín,mx
San Pancho,20.90114,-105.41658,San Francisco (San Pancho),mx
San Pedrito,23.36769,-110.20278,El Pescadero,mx
Sayulita,20.871862,-105.439871,Sayulita,mx
Shipwrecks,23.11954,-109.52792,Los Cabos,mx
The Ranch,17.91181,-101.86601,El Entronque de la Unión (Desv. de la Unión),mx
Todos Santos,31.81283,-116.80849,Todos Santos,mx
Troncones,17.78114,-101.72517,Troncones (Emiliano Zapata),mx
Zipolite,15.66336,-96.51989,San Pedro Pochutla,mx
Agadir,30.41186,-9.60411,Agadir,ma
Anchor Point,30.54603,-9.72474,Taghazout,ma
Banana Beach,30.50073,-9.67912,Aourir,ma
Boilers,30.625098,-9.875827,Tigert,ma
Cap Sim,31.38571,-9.83135,Ouassane,ma
Desert Point,29.77887,-9.8633,Aglou,ma
Devil's Rock,30.50652,-9.68667,Tamraght,ma
Dracula's,30.62378,-9.86138,Tigert,ma
El Jadida,33.24863,-8.49589,El Jadida,ma
Essaouira,31.49812,-9.76374,Essaouira,ma
Hash Point,30.544656,-9.7103,Taghazout,ma
Imsouane,30.83789,-9.82175,Imsouane,ma
Killer Point,30.55158,-9.73837,Azazoul,ma
La Source,30.54855,-9.7304,Taghazout,ma
Legzira,29.44662,-10.1166,Legzira,ma
Mirleft,29.5921,-10.0385,Mirleft,ma
Oualidia,32.74145,-9.03913,Oualidia,ma
Sidi Bouzid,33.23004,-8.55398,Sidi Bouzid,ma
Sidi Ifni,29.38315,-10.17643,Sidi Ifni,ma
Sidi Kaouki,31.35353,-9.79822,Essaouira,ma
Sidi Moussa d'Aglou,29.80937,-9.83073,Aglou,ma
Sidi R'bat,30.08811,-9.66726,Sidi Rabat,ma
Spiders,30.50321,-9.6846,Tamraght,ma
Tafedna,31.09642,-9.82303,Tafedna,ma
Taghazout,30.54293,-9.70782,Taghazout,ma
Tamri,30.71068,-9.85832,Tigert,ma
Tifnit,30.2025,-9.64219,Tifnit,ma
Aramoana,-45.77623,170.71079,Aramoana,nz
Blaketown Wedge,-42.44216,171.19296,Greymouth,nz
Bogan River,-36.8271,174.4252,Muriwai Beach,nz
Cobden,-42.43883,171.19542,Greymouth,nz
Fitzroy Beach,-39.04537,174.09767,New Plymouth,nz
Haast Beach,-43.866,168.9924,Haast Beach,nz
Hickory Bay,-43.77562,173.10799,Le Bons Bay,nz
Little Wanganui,-41.39073,172.05814,Little Wanganui,nz
Mangamanu,-42.32086,173.74854,Kaikōura District,nz
Motunau Beach Island,-43.06343,173.07895,Motunau Beach,nz
Mount Maunganui,-37.63954,176.1912,Tauranga,nz
Oakura Beach,-39.1105,173.95576,Oakura,nz
Piha,-36.95188,174.46602,Waitakere Ranges,nz
Raglan,-37.82124,174.82488,Waikato District,nz
Shipwreck Bay,-35.1714,173.1098,Northland,nz
Stent Road,-39.22005,173.77849,South Taranaki District,nz
Stoney Beach,-43.69349,173.06144,Okains Bay,nz
Taronui Bay,-35.12318,173.98449,Bay of Islands-Whangaroa Community,nz
The Island,-38.70663,178.049567,Gisborne,nz
Wainui Beach,-38.68414,178.07623,Gisborne,nz
Westport Breakwater,-41.72955,171.58646,Westport,nz
Whangapoua Beach,-36.7187,175.62745,Whangapoua,nz
Puerto Sandino,12.19837,-86.77279,Leon (Municipality),ni
Punta Miramar,12.16923,-86.76285,Miramar,ni
El Transito,12.05251,-86.70514,El Tránsito,ni
Popoyo,11.45191,-86.10181,Las Salinas,ni
Santana,11.44266,-86.08732,"Tola, Rivas",ni
Panga Drops,11.4098,-86.056,"Tola, Rivas",ni
Playa Colorado,11.40609,-86.0483,El Gigante,ni
Manzanillo,11.3701,-86.0092,"Tola, Rivas",ni
Bore,58.79941,5.5487,Kleppe,no
Brusand,58.52907,5.77121,Bogsdalen,no
Byberg,58.83176,5.5518,Sele,no
Ervik,62.16624,5.11413,Ervik,no
Hellestø,58.8432,5.562,Tjelta,no
Hoddevika,62.12585,5.1646,Stad,no
Hovden,61.68178,4.82684,Kinn,no
Hustadvika,62.98352,7.1526,Farstad,no
Karmøy,59.19956,5.18101,Karmøy,no
Kraakevika,62.67181,6.16822,Ulla,no
Kvassheim,58.55001,5.6725,Hå,no
Lista,58.08527,6.60008,Vestbygd,no
Lop Camping,67.32314,14.47848,Løpsmarka,no
Orre,58.7303,5.51631,Kleppe,no
Pigsty,58.7635,5.50093,Klepp,no
Refsnes,58.69233,5.5507,Salte,no
Reve Havn,58.77196,5.5169,Klepp,no
Saltstein,58.96451,9.8538,Nevlunghavn,no
Seinesodden,67.20882,14.3528,Bodø,no
Sele,58.81344,5.54558,Klepp,no
Skallelv,70.20831,30.4717,Komagvær,no
Storvika,66.94828,13.71658,Storvik,no
Unstad,68.27039,13.583,Unnstad,no
Careneros,9.354482,-82.227814,Isla Carenero,pa
Ciruelo,7.424,-80.14433,Distrito Pedasí,pa
Isla Chepillo,8.94847,-79.12938,Chepillo,pa
Isla Grande,9.63498,-79.55795,Juan Gallego,pa
La Barqueta,8.3014,-82.57166,Salsipuedes,pa
Nestles,8.08277,-81.81512,Chiriquí,pa
P-Land,8.0836,-81.81755,Chiriquí,pa
Panama Viejo,9.00443,-79.48699,Parque Lefevre,pa
Paunch,9.37424,-82.23885,Bocas del Toro,pa
Playa Bluff,9.40137,-82.24637,Bocas del Toro,pa
Playa Cambutal,7.24941,-80.49001,Cambutal,pa
Playa El Toro,7.5295,-80.00284,Distrito Pedasí,pa
Playa Grande,9.63022,-79.5543,La Guayra,pa
Playa Guanico,7.24867,-80.50134,Cambutal,pa
Playa Lagarto,7.50481,-80.00032,Distrito Pedasí,pa
Playa Las Bovedas,8.950251,-79.531542,San Felipe,pa
Playa Las Lajas,8.17107,-81.87385,Las Lajas,pa
Playa Los Destiladeros,7.45317,-80.05343,Distrito Pedasí,pa
Playa Madrono,7.42335,-80.23571,Cañas,pa
Playa Malibu,8.55886,-79.84232,Chame,pa
Playa Maria Chiquita,9.4439,-79.75265,María Chiquita,pa
Playa Raya,7.42152,-80.25279,Cañas,pa
Playa Rio Mar,8.45361,-79.97197,Distrito San Carlos,pa
Playa Santa Catalina,7.62623,-81.246,Santa Catalina,pa
Playa Serena,8.54875,-79.86804,Nueva Gorgona,pa
Playa Teta,8.50683,-79.91599,Distrito San Carlos,pa
Playa Venao,7.43252,-80.19552,Distrito Pedasí,pa
Punta Brava,7.61573,-81.23857,Santa Catalina,pa
Punta Roca,7.6339,-81.2782,Santa Catalina,pa
Daugo Island,-9.50543,147.04497,Port Moresby District,pg
Pikinini,-2.57407,150.79144,Kavieng,pg
Sero Beach,-9.52989,147.24639,Taurama,pg
Vanimo,-2.68433,141.2773,Vanimo,pg
Wewak,-3.564904,143.629908,Wewak,pg
Nago,-2.58296,150.77319,Kavieng,pg
Ral Island,-2.61066,150.70938,Lamet District,pg
Caballeros,-12.32458,-76.8374,Punta Hermosa,pe
Cabo Blanco,-4.25031,-81.23267,Cabo Blanco,pe
Cerro Azul,-13.02844,-76.48464,Cerro Azul,pe
Chicama,-7.704094,-79.443689,Puerto Malabrigo,pe
El Huayaco,-12.38414,-76.78928,San Bartolo,pe
El Paso,-12.33833,-76.82828,Punta Hermosa,pe
Herradurra,-12.18086,-77.03787,Chorrillos,pe
La Isla,-12.33873,-76.82112,Punta Hermosa,pe
Lobitos,-4.45346,-81.28602,Lobitos,pe
Makaha,-12.1292,-77.03642,Miraflores,pe
Mancora,-4.1109,-81.06747,Máncora,pe
Oscar Point,-12.32959,-76.83313,Punta Hermosa,pe
Pacasmayo,-7.41443,-79.58846,Pacasmayo,pe
Penascal,-12.3858,-76.787965,San Bartolo,pe
Pico Alto,-12.4083,-76.8277,Pucusana,pe
Playa Norte,-12.33521,-76.82942,Punta Hermosa,pe
Pulpos,-12.30818,-76.84548,Lurín,pe
Punta Huanchaco,-8.08239,-79.12337,Huanchaquito,pe
Punta Panico,-4.25077,-81.23834,Cabo Blanco,pe
Punta Rocas,-12.352,-76.81714,Punta Negra,pe
Senoritas,-12.3291,-76.83495,Punta Hermosa,pe
Spot Kontiki,-12.3473,-76.81747,Punta Negra,pe
El Silencio,-12.31261,-76.84166,Punta Hermosa,pe
Santa Rosa,-12.381755,-76.78849,Punta Negra,pe
Badoc Island Lefts,17.9243,120.4169,Badoc,ph
Badoc Point,17.92041,120.43957,Ilocos Norte,ph
Barrio,9.7455,126.1705,Malinao,ph
Bauang,16.54244,120.31893,Quinavite,ph
Boulevard,11.6154,125.43833,Borongan,ph
Car-rille,16.64427,120.30779,San Fernando,ph
Caridad,9.91842,126.11547,Caridad,ph
Cauit Point,9.30347,126.20562,Uba,ph
Cloud 9,9.8137,126.1652,Catangnan,ph
Darigayos,16.8191,120.33383,Almeida,ph
Horseshoe,9.8017,126.16723,Catangnan,ph
Jelly's Point,9.30673,126.17302,Capandan,ph
Lanuza,9.23391,126.05564,Lanuza,ph
Llorente,11.41315,125.5483,Llorente,ph
Lucky Point,13.66896,124.41388,Guinsaanan,ph
Mabuntok,9.639743,126.1806,La Janusa,ph
Majestics,13.68978,124.3952,Paniquihan,ph
Manangat,17.5417,120.35837,Vigan,ph
Marami Beach,9.0796,126.1792,Tandag,ph
Mona Lisa Point,16.6393,120.3072,San Fernando,ph
Moshi Moshi,9.24909,126.10358,Sibahay,ph
Nalvo,17.36104,120.4547,Santa Maria,ph
Pacifico,9.9435,126.1033,Pacifico,ph
Pansukian,9.73351,126.13902,Daku,ph
Parada Santa,17.49163,120.42613,Tabucolan,ph
Pencit Reef,9.83418,126.1644,Catangnan,ph
Pilar,9.8577,126.0983,Pilar,ph
Pirates Cove,11.606,125.44722,Borongan,ph
Poro Point,16.6064,120.28783,The Point Residences,ph
Puro Pinget,17.69223,120.3561,Ilocos Sur,ph
Random Beach Break,9.29598,125.99974,Cantilan,ph
Star Tubes,17.92371,120.43735,Badoc,ph
Stimpy's,9.8435,126.1567,Santa Fe,ph
Sulingan Beach,10.966,125.8269,Sitio Cabanian,ph
Tago River,8.9883,126.2661,La Paz,ph
Tuason Point,9.80648,126.1636,Catangnan,ph
Turtle Head,17.91488,120.41187,Badoc,ph
Urbiztondo Beach,16.65492,120.31823,Urbiztondo,ph
Virac Harbour,13.58103,124.23505,Salvacion,ph
Achadas da Cruz,32.85345,-17.21588,Calhau das Achadas,pt
Afife,41.78026,-8.87116,Afife,pt
Água d'Alto,37.71656,-25.45562,Água d'Alto,pt
Aguçadoura,41.44399,-8.77935,Póvoa de Varzim,pt
Albufeira,37.08653,-8.24948,Albufeira e Olhos de Água,pt
Almagreira,39.37982,-9.31212,Ferrel,pt
Altura,37.17005,-7.49794,Altura,pt
Alvor,37.12255,-8.59,Alvor,pt
Amado,37.16709,-8.9032,Aljezur,pt
Amoreira,37.3508,-8.8446,Aljezur,pt
Areia Branca,39.26324,-9.33566,Lourinhã e Atalaia,pt
Arrifana,37.29398,-8.86558,Arrifana,pt
Aterro,41.20848,-8.71561,Matosinhos,pt
Azurara,41.33752,-8.74159,Azurara,pt
Baleal,39.37365,-9.33825,Baleal,pt
Beliche,37.02561,-8.96402,Vila do Bispo,pt
Bico,38.65643,-9.09226,Barreiro e Lavradio,pt
Bordeira,37.1976,-8.9012,Aljezur,pt
Cabedelo de Viana,41.67859,-8.83112,Darque,pt
Cabedelo do Douro,41.13797,-8.66674,Vila Nova de Gaia,pt
Cabo do Mundo,41.219399,-8.714852,Perafita,pt
Canide Norte,41.11499,-8.66369,Madalena,pt
Cantinho da Baía,39.36719,-9.33959,Parque Residêncial Balealcoop,pt
Carcavelos,38.67928,-9.33398,Carcavelos,pt
Cave,38.99064,-9.42312,Mafra,pt
Comporta,38.38096,-8.80318,Grândola,pt
Consolação,39.32576,-9.35942,Consolação,pt
Contreiras,32.84224,-17.14072,Contreiras,pt
Cordoama,37.10865,-8.93747,Vila do Bispo,pt
Cortegaça,40.9394,-8.65872,Ovar,pt
Costa da Caparica,38.6413,-9.23808,Costa da Caparica,pt
Costa Nova,40.61429,-8.75399,Costa Nova,pt
Cova da Alfarroba,39.36069,-9.36279,Peniche,pt
Cova do Vapor,38.66091,-9.25608,Almada,pt
Coxos,39.00128,-9.42663,Mafra,pt
Ericeira,38.96745,-9.4198,Ericeira,pt
Espinho,41.00856,-8.64606,Anta,pt
Esposende,41.5425,-8.79222,Esposende,pt
Fajã da Areia,32.80882,-17.04905,São Vicente,pt
Fajã da Caldeira de Santo Cristo,38.6001,-28.00493,Calheta,pt
Fajã dos Cubres,38.643,-27.9654,Fajã dos Cubres,pt
Figueira Foz,40.15543,-8.86877,Praia de Buarcos,pt
Fonte da Telha,38.57405,-9.19669,Fonte da Telha,pt
Foz do Arelho,39.433516,-9.228342,Foz do Arelho,pt
Foz do Lizandro,38.94222,-9.4155,Foz do Lizandro,pt
Furadouro,40.87167,-8.67797,Furadouro,pt
Guincho,38.73115,-9.47221,Cascais e Estoril,pt
Inatel,37.08592,-8.24466,Albufeira e Olhos de Água,pt
Ingrina,37.04655,-8.87921,Vila do Bispo,pt
Jardins do Mar,32.73727,-17.21258,Calheta,pt
Lagido,39.37408,-9.33707,Baleal,pt
Lagoa de Albufeira,38.50695,-9.18133,Sesimbra,pt
Lagos,37.1069,-8.6648,São Gonçalo de Lagos,pt
Leça da Palmeira,41.189397,-8.705359,Matosinhos,pt
Luz,37.08682,-8.72628,Luz,pt
Maceda,40.920692,-8.661599,Maceda,pt
Machico,32.71629,-16.7647,Machico,pt
Madalena do Mar,32.700809,-17.135837,Madalena do Mar,pt
Malhão,37.77998,-8.80224,Odemira,pt
Mareta,37.00585,-8.93799,Vila do Bispo,pt
Martinhal,37.02029,-8.92506,Martinhal,pt
Matadouro,38.97554,-9.42028,Ericeira,pt
Matosinhos,41.176235,-8.691471,Matosinhos,pt
Meia Praia,37.11757,-8.64565,São Gonçalo de Lagos,pt
Meio da Baía,39.36253,-9.34825,Peniche,pt
Mindelo,41.304812,-8.738066,Vila Chã,pt
Mira,40.454438,-8.803694,Praia de Mira,pt
Moledo do Minho,41.84946,-8.86631,Caminha,pt
Molhe Leste,39.34928,-9.36608,Atouguia da Baleia,pt
Monte Clérigo,37.34144,-8.85325,Aljezur,pt
Murtosa,40.73884,-8.7219,Torreira,pt
Nazaré,39.601665,-9.074201,Nazaré,pt
Odeceixe,37.441437,-8.797673,Odeceixe,pt
Ofir,41.513448,-8.785984,Fão,pt
Papoa,39.3691,-9.37784,Peniche,pt
Parede,38.685719,-9.353274,Carcavelos e Parede,pt
Paul do Mar,32.75788,-17.23079,Calheta,pt
Pedra Branca,38.98081,-9.42196,Ericeira,pt
Pedrogão,39.91942,-8.95382,Pedrógão,pt
Pico da Mota,39.38402,-9.30362,Ferrel,pt
Ponta do Pargo,32.8138,-17.26253,Ponta do Pargo,pt
Ponta do Paul,32.76728,-17.23859,Fajã da Pedra,pt
Porto Batel,39.31967,-9.35552,Lugar da Estrada,pt
Porto Côvo,37.857257,-8.79329,Porto Covo,pt
Porto da Cruz,32.76852,-16.82305,Porto da Cruz,pt
Póvoa de Varzim,41.38159,-8.770438,Póvoa de Varzim,pt
Praia Azul,41.34584,-8.75362,Vila do Conde,pt
Praia da Barra,40.63665,-8.74857,Barra,pt
Praia da Rocha,37.1155,-8.5306,Portimão,pt
Praia da Vieira,39.87476,-8.9723,Praia da Vieira,pt
Praia das Bicas,38.4237,-9.21465,Sesimbra,pt
Praia das Maçãs,38.82562,-9.46961,Praia das Maçãs,pt
Praia de Monte Gordo,37.17765,-7.45493,Monte Gordo,pt
Praia do CDS,38.64624,-9.24251,Costa da Caparica,pt
Praia do Norte,39.6093,-9.08331,Nazaré,pt
Praia dos Ingleses,41.152134,-8.678315,Porto,pt
Praia Grande,38.81517,-9.47659,Mira Serra,pt
Prainha,39.37219,-9.33848,Baleal,pt
Rabo de Peixe,37.81426,-25.58743,Rabo de Peixe,pt
Reef,38.98248,-9.42194,Ericeira,pt
Ria Formosa,37.01357,-8.00534,Almancil,pt
Ribeira d'Ilhas,38.98775,-9.41901,Mafra,pt
Ribeira das Janelas,32.851348,-17.149897,Ribeira da Janela,pt
Ribeira Quente,37.731722,-25.304438,Fogo,pt
Sagres,37.00549,-8.94011,Vila do Bispo,pt
Salgueiros,41.11289,-8.66332,Madalena,pt
Santa Bárbara,37.87963,-25.7126,Santa Bárbara,pt
Santa Catarina,38.70693,-27.04885,Cabo da Praia,pt
Santa Cruz,39.140126,-9.378494,Vale de Janelas,pt
Santo Amaro,38.68512,-9.31165,Figueirinha,pt
São Julião,38.93198,-9.41991,Valbom,pt
São Lourenço,39.01189,-9.42144,São Lourenço,pt
São Pedro de Moel,39.755465,-9.032312,São Pedro de Moel,pt
São Torpes,37.922841,-8.805253,Sines,pt
Sesimbra,38.442441,-9.099134,Sesimbra,pt
Sines,37.954045,-8.866925,Sines,pt
Supertubos,39.341865,-9.361212,Atouguia da Baleia,pt
Tavira,37.11216,-7.62089,Tavira,pt
Tonel,37.00725,-8.948,Vila do Bispo,pt
Tróia,38.48408,-8.90208,Tróia,pt
Vale Figueiras,37.2474,-8.8693,Aljezur,pt
Vila Franca do Campo,37.71368,-25.43851,Vila Franca do Campo (São Pedro),pt
Vila Nova de Milfontes,37.718826,-8.790498,Odemira,pt
Vila Praia de Âncora,41.81135,-8.86426,Vila Praia de Âncora,pt
Zambujeira do Mar,37.52235,-8.78673,Odemira,pt
Zavial,37.04653,-8.87168,Vila do Bispo,pt
Antonio's,18.37198,-67.2521,Puntas,us
Aviones,18.45119,-65.95713,Torrecilla Baja,us
Bridges,18.426499,-67.155573,Aguadilla,us
Chatarra,18.45394,-65.96723,Torrecilla Baja,us
Crash Boat,18.45862,-67.1644,Borinquen,us
Domes,18.36551,-67.26974,Rincón,us
Gas Chambers,18.460664,-67.165808,Borinquen,us
Guajataca,18.48879,-66.95538,Quebradillas,us
Inches,17.973266,-65.96236,Maunabo,us
Indicators,18.36086,-67.27071,Rincón,us
Playa Jobos,18.513526,-67.076262,Guerrero,us
La Ocho,18.46622,-66.09502,San Juan,us
La Pared,18.37729,-65.71539,Luquillo,us
La Selva,18.36225,-65.67182,Boquerón,us
Little Malibu,18.343971,-67.26016,Rincón,us
Los Tubos,18.47183,-66.44833,Manatí,us
Margara,18.47471,-66.72997,Arecibo,us
Maria's,18.358018,-67.269625,Rincón,us
Middles,18.51274,-67.03936,Guerrero,us
Parking Lots,18.370601,-67.259382,Puntas,us
Pine Grove,18.44395,-66.01028,Carolina,us
Pools,18.36994,-67.26108,Puntas,us
San Juan,18.45877,-66.07414,San Juan,us
Sandy Beach,18.37063,-67.25839,Puntas,us
Surfer's Beach,18.50585,-67.14044,Maleza Alta,us
Table Top,18.50749,-67.13813,Maleza Baja,us
The Point,18.35938,-67.2703,Rincón,us
Tocones,18.45084,-65.95588,Torrecilla Baja,us
Tres Palmas,18.35292,-67.26706,Rincón,us
Wilderness,18.48402,-67.16653,Borinquen,us
Wishing Well,18.47226,-67.16889,Borinquen,us
Patrokl,43.07172,131.96301,Vladivostok,ru
Popov Island,42.951,131.73855,Popov island,ru
Shitovaya,43.11484,132.01223,Vladivostok,ru
Sochi,43.56836,39.73291,Sochi,ru
Uliss,43.07219,131.94111,Vladivostok,ru
Anne Avenue,-34.16253,24.83278,St. Francis Bay,za
Ansteys,-29.92419,31.01922,Durban,za
Avalanche,-33.983717,25.670797,Port Elizabeth,za
Baked Beans,-33.979237,25.655675,Port Elizabeth,za
Ballito,-29.53377,31.22306,Ballito,za
Betty's Bay,-34.3591,18.90517,Betty's Bay,za
Buffels Bay,-34.09,22.97748,Buffel's Bay,za
Cape St Francis,-34.17329,24.83781,St. Francis Bay,za
Cape Town,-33.90688,18.39523,Cape Town,za
Cave Rock,-29.88825,31.0514,Durban,za
Clubhouse,-33.98524,25.6719,Port Elizabeth,za
Coffee Bay,-31.96605,29.16853,King Sabata Dalindyebo Local Municipality,za
Denvils,-33.976357,25.649184,Port Elizabeth,za
Dungeons,-34.0584,18.32926,City of Cape Town,za
Elands Bay,-32.31595,18.33275,Elandsbaai,za
Fence,-33.96364,25.64476,Port Elizabeth,za
Flowrider,-29.72629,31.0889,Umhlanga Rocks,za
Hermanus,-34.41399,19.25098,Hermanus,za
Humewood Pier,-33.97829,25.65272,Port Elizabeth,za
Jeffreys Bay,-34.03139,24.93303,Jeffreys Bay,za
Kalk Bay,-34.126433,18.449851,City of Cape Town,za
Kleinmond,-34.3459,19.00865,Kleinmond,za
Kommetjie,-34.14023,18.32039,City of Cape Town,za
Long Beach,-34.13569,18.33219,City of Cape Town,za
Melkbosstrand,-33.71848,18.44366,Melkbosstrand,za
Millers,-33.98198,25.66359,Port Elizabeth,za
Mossel Bay,-34.179465,22.151366,Mossel Bay,za
Muizenberg,-34.09988,18.49,City of Cape Town,za
Nahoon Reef,-32.99671,27.95217,East London,za
New Pier,-29.85237,31.03987,Durban,za
North Beach,-29.84991,31.03878,Durban,za
Outer Kom,-34.14567,18.31821,City of Cape Town,za
Pipe,-33.98733,25.67302,Port Elizabeth,za
Plettenberg Bay,-34.057,23.3785,Plettenberg Bay,za
Port Alfred,-33.6075,26.8941,Port Alfred,za
Seal Point,-34.209,24.8368,Cape St. Francis,za
Shark Rock Pier,-33.9801,25.65891,Port Elizabeth,za
Still Bay,-34.37082,21.43643,Stilbaai,za
Strand,-34.1159,18.82341,Strand,za
Sunrise,-29.52735,31.22605,Shaka's Rock,za
Sunset Reef,-34.12852,18.33813,City of Cape Town,za
The Dunes,-34.11587,18.35255,City of Cape Town,za
The Hoek,-34.09516,18.35269,Noordhoek,za
Umdloti,-29.67482,31.11578,Umdloti / eMdloti,za
Victoria Bay,-34.00447,22.54898,George Local Municipality,za
Warner Beach,-30.0841,30.86832,eThekwini Metropolitan Municipality,za
Wedge,-29.85429,31.04041,Durban,za
Westbrook,-29.59354,31.17029,eThekwini Metropolitan Municipality,za
Wilderness,-33.99543,22.57958,Wilderness,za
Yzerfontein,-33.36566,18.16222,Yzerfontein,za
Aguieira,42.74047,-8.97065,Quintáns,es
Andrín,43.41032,-4.70874,Andrín,es
Arenillas,43.39936,-3.32272,Oriñón,es
Bakio,43.43057,-2.80442,Luzarraga,es
Barbate,36.18665,-5.91963,Barbate,es
Berria,43.46369,-3.46636,Berria,es
Cádiz,36.52988,-6.30579,Cádiz,es
Campelo,43.58311,-8.21543,Valdoviño,es
Conil de la Frontera,36.27633,-6.09475,Conil de la Frontera,es
El Brusco,43.4698,-3.4907,Noja,es
El Confital,28.029604,-16.567571,Granadilla de Abona,es
El Frontón,28.16511,-15.65382,El Agujero,es
El Mongol,43.54128,-5.65583,Gijón,es
El Sardinero,43.47746,-3.78779,Cueto,es
Foz,43.5728,-7.2494,Foz,es
Gaztetape,43.30366,-2.20599,Getaria,es
Getxo,43.35559,-3.01849,Getxo,es
Hondarribia,43.37893,-1.7959,Hondarribia/Fontarrabie,es
Isla de Santa Marina,43.47044,-3.73038,Ribamontán al Mar,es
La Salbaje,43.38369,-3.00297,Bareño,es
Laredo,43.41303,-3.43339,Barrio de Pescadores,es
Lariño,42.77205,-9.12469,Lariño,es
Las Salinas,28.0694,-14.43909,Pájara,es
Los Locos,43.43856,-4.04711,Suances,es
Los Patos,28.422808,-16.5072,Santa Úrsula,es
Los Quebrantos,43.56534,-6.06486,L'Arena,es
Louro,42.75653,-9.10188,O Ancoradoiro,es
Meñakoz,43.39526,-2.98557,Sopelana,es
Merón,43.54389,-5.49398,Argüeru,es
Mundaka,43.407727,-2.696739,Mundaka,es
Nemiña,43.01001,-9.2626,Muxía,es
Ondarreta,43.31595,-2.00061,San Sebastián,es
Orio,43.28831,-2.12727,Orio,es
Orrua,43.303402,-2.24279,Askizu,es
Oyambre,43.39006,-4.3304,Valdáliga,es
Pantín,43.63994,-8.11105,Valdoviño,es
Patos,42.1542,-8.82604,Nigrán,es
Peñarronda,43.5525,-6.9956,Viyadún,es
Playa A Frouxeira,43.61472,-8.15308,Valdoviño,es
Playa de La Concha,43.31802,-1.98597,San Sebastián,es
Playa de Los Caballos,43.44243,-4.02283,Cuchía,es
Playa de Merón,43.39002,-4.3819,San Vicente de la Barquera,es
Playa de Traba,43.18838,-9.05063,Mórdomo,es
Punta del Confital,28.158475,-15.433715,Las Palmas de Gran Canaria,es
Razo,43.28937,-8.70942,Arnados,es
Rodiles,43.53351,-5.37777,El Puntal,es
Sabón,43.32932,-8.504851,Sabón,es
Salinas,43.58414,-5.9455,Piedrasblancas,es
Santa Comba,43.55562,-8.29028,Ferrol,es
Somo,43.4567,-3.74437,Somo,es
Sopelana,43.38806,-2.99587,Bareño,es
Tapia de Casariego,43.56889,-6.94886,San Blas,es
Verdicio,43.62589,-5.87655,Gozón,es
Xivares,43.57006,-5.72128,Xibares,es
Yerbabuena,36.184637,-6.008401,Barbate,es
Zarautz,43.28829,-2.16385,Zarautz,es
Zurriola,43.32689,-1.97235,San Sebastián,es
Maraa,-17.74829,-149.58265,Māra’a,fr
Papara,-17.76404,-149.50207,Papara,fr
Papenoo,-17.50868,-149.43005,Hitiaa O Te Ra,fr
Taapuna,-17.6018,-149.6235,Windward Islands,fr
Teahupoo,-17.86617,-149.25249,Taiarapu-Ouest,fr
Vairao,-17.8008,-149.31092,Windward Islands,fr
Bantham,50.278456,-3.8781,Bigbury-on-Sea,gb
Bournemouth,50.71624,-1.87366,Bournemouth,gb
Bude,50.831055,-4.55067,Bude,gb
Caswell Beach,51.57001,-4.03145,Owensfield,gb
Croyde,51.13054,-4.2374,Croyde,gb
Fistral Beach,50.418769,-5.09756,Newquay,gb
Freshwater West,51.66239,-5.06392,Pembrokeshire,gb
Langland Beach,51.567717,-4.00615,Newton,gb
Llangennith,51.59215,-4.29316,Llangennith,gb
Long Sands,55.02679,-1.42851,Tynemouth,gb
Newgale,51.856917,-5.12687,Newgale,gb
Pease Bay,55.93142,-2.3329,Pease Bay,gb
Perranporth,50.34735,-5.1542,Perranporth,gb
Polzeath,50.574127,-4.91507,Polzeath,gb
Porth Neigwl,50.2271,-5.39118,Gwithian,gb
Porthleven,50.080749,-5.313237,Porthleven,gb
Rhossili Bay,51.560764,-4.28039,Middleton,gb
Saltburn,54.586021,-0.96912,Old Saltburn,gb
Saunton Sands,51.11713,-4.22141,Saunton,gb
Sennen Cove,50.07887,-5.69701,Sennen Cove,gb
St Ives,50.215082,-5.483007,St. Ives,gb
The Cribbar,50.42503,-5.10163,Newquay,gb
Thurso East,58.59929,-3.51012,Thurso,gb
Tolcarne,50.41736,-5.07332,Newquay,gb
Tywyn,52.58435,-4.10094,Tywyn,gb
Watergate Bay,50.444475,-5.042269,Trevelgue,gb
Woolacombe,51.170599,-4.208628,Woolacombe,gb
7 - 11,39.64953,-74.17294,Ship Bottom,us
8th Street Jetty,40.22787,-73.99706,Asbury Park,us
Backdoor,21.6641,-158.05235,Sunset Beach,us
Backyards,21.68088,-158.03766,Waiale‘e,us
Pipeline,21.665091,-158.051236,Sunset Beach,us
Bathtub Beach,27.186891,-80.160698,Seminole Shores,us
Belmar,40.18081,-74.01191,Belmar,us
Blacks Beach,32.88078,-117.25176,San Diego,us
Broadway Beach,38.92975,-74.93145,Cape May,us
Brookings,42.04446,-124.26885,Brookings,us
Cannon Beach,45.890083,-123.963952,Cannon Beach,us
Canoes,21.275711,-157.826205,Honolulu,us
Cardiff Reef,33.01497,-117.28,Cardiff-by-the-Sea,us
Casino Pier,39.94215,-74.07002,Seaside Heights,us
Daytona Beach,29.21847,-81.002774,Daytona Beach,us
Ditch Plains,41.03965,-71.91702,Ditch Plains,us
El Porto,33.89999,-118.420169,Hermosa Beach,us
First Point,34.035426,-118.67874,Malibu Beach,us
Flagler Avenue,29.03857,-80.895271,New Smyrna Beach,us
Flagler Beach,29.47859,-81.12584,Flagler Beach,us
Florence,44.01504,-124.13809,Lane County,us
Gold Beach,42.4179,-124.42831,Gold Beach,us
Good Rats,57.37403,-135.76582,Sitka,us
Haleiwa,21.594,-158.10832,Haleʻiwa,us
Hanalei Bay,22.20338,-159.50282,Hanalei,us
Hermosa Beach,33.86153,-118.401922,Hermosa Beach,us
Hobe Sound Public Beach,27.06652,-80.11514,Jupiter Island,us
Honolua Bay,21.015732,-156.638451,Honokohau,us
Hookipa Beach Park,20.933267,-156.358554,Maui County,us
Huntington Beach,33.65581,-118.00166,Huntington Beach,us
Jacksonville Beach,30.288738,-81.388433,Jacksonville Beach,us
Juno Pier,26.89293,-80.05689,Juno Beach,us
Jupiter Inlet,26.943364,-80.071841,Palm Beach County,us
Kai's Place,57.06227,-135.84267,Sitka,us
Kalapaki Beach,21.96034,-159.351867,Lihue,us
Kealia Beach,22.097535,-159.30547,Kealia,us
Kohala Lighthouse,20.241905,-155.774082,Hawaiʻi County,us
Lake Worth,26.612685,-80,Palm Beach County,us
Latigo Point,34.026181,-118.756124,Malibu,us
Lincoln City,44.95894,-124.02095,Lincoln City,us
Log Cabins,21.65357,-158.06206,Honolulu County,us
Long Beach,40.58308,-73.6526,Long Beach,us
Low Island,57.01026,-135.61142,Sitka,us
Lower Trestles,33.38258,-117.58782,San Onofre,us
Manasquan Inlet,40.11296,-74.03276,Manasquan,us
Manhattan Beach,33.88413,-118.41199,Manhattan Beach,us
Mavericks,37.49595,-122.49874,Princeton-by-the-Sea,us
Mayport Poles,30.381927,-81.396799,East Mayport,us
Melbourne Beach,28.068444,-80.556589,Melbourne Beach,us
Middles,33.38128,-117.58126,San Onofre,us
Neva Bay,57.04022,-135.8458,Sitka,us
Newport Beach,33.607777,-117.928992,Newport Beach,us
North Street,39.28358,-74.55691,Ocean City,us
Ocean Reef Park,26.79407,-80.03212,Palm Beach Isles,us
Oceanside,33.192707,-117.382904,Oceanside,us
Oceanside Pier,33.194188,-117.38407,Oceanside,us
Off-The-Wall,21.65967,-158.05742,Honolulu County,us
Ormond Beach,29.28626,-81.03593,Ellinor Village,us
Pacific City,45.20238,-123.9681,Pacific City,us
Peahi-Jaws,20.94037,-156.30129,Maui County,us
Perkins,28.20135,-80.59524,Satellite Beach,us
Picnic Tables,28.2624,-80.60459,Brevard County,us
Pine Trees,19.695327,-156.044749,Hawaiʻi County,us
Pleasure Point,36.958202,-121.968773,Pleasure Point,us
Point Dume,34.00228,-118.80502,Malibu,us
Ponce Inlet,29.07893,-80.91911,Ponce Inlet,us
Port Mary,57.16898,-135.75364,Sitka,us
Port Orford,42.74084,-124.49892,Port Orford,us
Red Tree Reef,57.05013,-135.84949,Sitka,us
Rincon Point,34.37353,-119.47666,Rincon,us
Roads End,44.99541,-124.01286,Lincoln City,us
Rockaway Beach,40.58393,-73.81266,New York,us
Rockaway-Manzanita,45.61447,-123.94564,Rockaway Beach,us
Salt Creek Beach,33.47613,-117.72187,Dana Point,us
San Onofre State Beach,33.3728,-117.56502,San Onofre,us
Sandy Beach,21.28605,-157.67171,Honolulu,us
Sandy Beach,57.075443,-135.37222,Sitka,us
Sandy Hook,40.4779,-74.0024,Fort Hancock,us
Satellite Beach,28.17517,-80.58918,Satellite Beach,us
Scripps,32.86593,-117.25433,San Diego,us
Seal Beach,33.73915,-118.10684,Seal Beach,us
Sealion Cove,57.29903,-135.8277,Sitka,us
Sebastian Inlet,27.85926,-80.447104,Indian River County,us
Shipwreck Beach,21.874911,-159.436904,Kauaʻi County,us
Shoals Point,57.01139,-135.6341,Sitka,us
Spessard Holland,28.047678,-80.547397,Melbourne Beach,us
State's Avenue,39.35964,-74.41742,Atlantic City,us
Steamer Lane,36.951495,-122.025992,Santa Cruz,us
Stockton,38.93035,-74.91616,Cape May,us
Stone Harbor,39.04281,-74.76284,Stone Harbor,us
Stuart Public Beach,27.21477,-80.17431,Martin County,us
Sumner Avenue,39.32248,-74.50677,Margate City,us
Sunglow Pier,29.1463,-80.96505,Halifax Estates,us
Sunset Beach,21.671238,-158.044829,Sunset Beach,us
T-Street,33.416156,-117.6174,San Clemente,us
The Radisson,28.13532,-80.57892,Melbourne,us
The Streets,28.30235,-80.60768,Cocoa Beach,us
The Wall,57.06927,-135.36715,Sitka,us
The Wedge,33.59497,-117.88284,Newport Beach,us
Topanga,34.03979,-118.57958,Topanga,us
Topanga Beach,34.03865,-118.58253,Topanga,us
Upper Trestles,33.38512,-117.59353,San Clemente,us
Venice Beach,33.98559,-118.4744,Los Angeles,us
Ventnor Pier,39.33672,-74.477,Ventnor City,us
Wabasso,27.76337,-80.39695,Wabasso Beach,us
Waikiki Beach,21.27078,-157.82283,Honolulu,us
Waimea,21.639369,-158.063385,Honolulu County,us
White Plains Beach,21.303579,-158.045,Kapolei,us
Zuma Beach,34.016225,-118.823177,Trancas,us
Enniscrone,54.2128303,-9.1008285,Castleconor West Electoral Division,ie
Barley Cove,51.4687745,-9.7766891,Crookhaven ED,ie
Carrownisky,53.7356567,-9.8953054,Aillemore ED,ie
Doughmore,52.7599657,-9.4933322,Doonbeg ED,ie
Magheroarty,55.1478084,-8.159115,Magheraroarty,ie
Portrush,55.2007883,-6.6565438,Portrush,gb
Portsalon,55.1927926,-7.613948,Letterkenny,ie
Skeleton Bay / Donkey Bay,-22.9376218,14.4175265,Walvis Bay,na
Cherating Beach,4.124652,103.397741,Cherating,my